{
  "type": "FeatureCollection",
  "features": [
    {
      "type": "Feature",
      "properties": {
        "norad_id": 33860,
        "name": "IRIDIUM 33 DEB",
        "group": "iridium-33-debris",
        "lat": 33.78626220902064,
        "lon": -157.87518205842028,
        "alt_km": 671.9529562204771,
        "timestamp": "2025-12-18T19:29:52.927409+00:00",
        "meta_object_name": "IRIDIUM 33 DEB",
        "meta_object_id": "1997-051AD",
        "meta_epoch": "2025-12-17T20:44:12.939360",
        "meta_mean_motion": 14.67430284,
        "meta_eccentricity": 0.00068026,
        "meta_inclination": 86.383,
        "meta_ra_of_asc_node": 24.9702,
        "meta_arg_of_pericenter": 338.9928,
        "meta_mean_anomaly": 200.2334,
        "meta_ephemeris_type": 0,
        "meta_classification_type": "U",
        "meta_norad_cat_id": 33860,
        "meta_element_set_no": 999,
        "meta_rev_at_epoch": 88797,
        "meta_bstar": 0.00087666322,
        "meta_mean_motion_dot": 4.982e-05,
        "meta_mean_motion_ddot": 0,
        "tle_line1": "1 33860U 97051AD  25351.86403865  .00004982  00000+0  87666-3 0  9996",
        "tle_line2": "2 33860  86.3830  24.9702 0006802 338.9928 200.2334 14.67430284887974"
      },
      "geometry": {
        "type": "Point",
        "coordinates": [
          -157.87518205842028,
          33.78626220902064
        ]
      }
    },
    {
      "type": "Feature",
      "properties": {
        "norad_id": 33862,
        "name": "IRIDIUM 33 DEB",
        "group": "iridium-33-debris",
        "lat": -47.56772895645094,
        "lon": -141.2078172906834,
        "alt_km": 706.6325239140124,
        "timestamp": "2025-12-18T19:29:52.927419+00:00",
        "meta_object_name": "IRIDIUM 33 DEB",
        "meta_object_id": "1997-051AF",
        "meta_epoch": "2025-12-18T04:01:58.650816",
        "meta_mean_motion": 14.6956049,
        "meta_eccentricity": 0.0052929,
        "meta_inclination": 86.4088,
        "meta_ra_of_asc_node": 35.137,
        "meta_arg_of_pericenter": 50.991,
        "meta_mean_anomaly": 9.7866,
        "meta_ephemeris_type": 0,
        "meta_classification_type": "U",
        "meta_norad_cat_id": 33862,
        "meta_element_set_no": 999,
        "meta_rev_at_epoch": 88903,
        "meta_bstar": 0.0010554375,
        "meta_mean_motion_dot": 6.426e-05,
        "meta_mean_motion_ddot": 0,
        "tle_line1": "1 33862U 97051AF  25352.16803994  .00006426  00000+0  10554-2 0  9995",
        "tle_line2": "2 33862  86.4088  35.1370 0052929  50.9910   9.7866 14.69560490889036"
      },
      "geometry": {
        "type": "Point",
        "coordinates": [
          -141.2078172906834,
          -47.56772895645094
        ]
      }
    },
    {
      "type": "Feature",
      "properties": {
        "norad_id": 33866,
        "name": "IRIDIUM 33 DEB",
        "group": "iridium-33-debris",
        "lat": 45.57231191240912,
        "lon": 94.25159465308438,
        "alt_km": 811.8123723204444,
        "timestamp": "2025-12-18T19:29:52.927430+00:00",
        "meta_object_name": "IRIDIUM 33 DEB",
        "meta_object_id": "1997-051AK",
        "meta_epoch": "2025-12-18T05:56:25.193184",
        "meta_mean_motion": 14.25291707,
        "meta_eccentricity": 0.01148411,
        "meta_inclination": 86.3,
        "meta_ra_of_asc_node": 90.7055,
        "meta_arg_of_pericenter": 143.9211,
        "meta_mean_anomaly": 246.4212,
        "meta_ephemeris_type": 0,
        "meta_classification_type": "U",
        "meta_norad_cat_id": 33866,
        "meta_element_set_no": 999,
        "meta_rev_at_epoch": 86889,
        "meta_bstar": 0.00046890832,
        "meta_mean_motion_dot": 1.202e-05,
        "meta_mean_motion_ddot": 0,
        "tle_line1": "1 33866U 97051AK  25352.24751381  .00001202  00000+0  46891-3 0  9991",
        "tle_line2": "2 33866  86.3000  90.7055 0114841 143.9211 246.4212 14.25291707868899"
      },
      "geometry": {
        "type": "Point",
        "coordinates": [
          94.25159465308438,
          45.57231191240912
        ]
      }
    },
    {
      "type": "Feature",
      "properties": {
        "norad_id": 33867,
        "name": "IRIDIUM 33 DEB",
        "group": "iridium-33-debris",
        "lat": 80.26460241906504,
        "lon": 8.675880235245694,
        "alt_km": 314.1650332806403,
        "timestamp": "2025-12-18T19:29:52.927441+00:00",
        "meta_object_name": "IRIDIUM 33 DEB",
        "meta_object_id": "1997-051AL",
        "meta_epoch": "2025-12-17T23:22:59.337696",
        "meta_mean_motion": 15.78004875,
        "meta_eccentricity": 0.00136954,
        "meta_inclination": 86.3645,
        "meta_ra_of_asc_node": 347.3655,
        "meta_arg_of_pericenter": 92.6953,
        "meta_mean_anomaly": 267.5889,
        "meta_ephemeris_type": 0,
        "meta_classification_type": "U",
        "meta_norad_cat_id": 33867,
        "meta_element_set_no": 999,
        "meta_rev_at_epoch": 89593,
        "meta_bstar": 0.0066341837,
        "meta_mean_motion_dot": 0.01271122,
        "meta_mean_motion_ddot": 0,
        "tle_line1": "1 33867U 97051AL  25351.97429789  .01271122  00000+0  66342-2 0  9998",
        "tle_line2": "2 33867  86.3645 347.3655 0013695  92.6953 267.5889 15.78004875895936"
      },
      "geometry": {
        "type": "Point",
        "coordinates": [
          8.675880235245694,
          80.26460241906504
        ]
      }
    },
    {
      "type": "Feature",
      "properties": {
        "norad_id": 33870,
        "name": "IRIDIUM 33 DEB",
        "group": "iridium-33-debris",
        "lat": -55.29067185869611,
        "lon": -119.09024822340113,
        "alt_km": 742.6566240202055,
        "timestamp": "2025-12-18T19:29:52.927451+00:00",
        "meta_object_name": "IRIDIUM 33 DEB",
        "meta_object_id": "1997-051AP",
        "meta_epoch": "2025-12-18T05:23:59.703648",
        "meta_mean_motion": 14.45879643,
        "meta_eccentricity": 0.00220517,
        "meta_inclination": 86.3746,
        "meta_ra_of_asc_node": 55.9098,
        "meta_arg_of_pericenter": 160.4911,
        "meta_mean_anomaly": 258.9692,
        "meta_ephemeris_type": 0,
        "meta_classification_type": "U",
        "meta_norad_cat_id": 33870,
        "meta_element_set_no": 999,
        "meta_rev_at_epoch": 88216,
        "meta_bstar": 0.00057936504,
        "meta_mean_motion_dot": 2.083e-05,
        "meta_mean_motion_ddot": 0,
        "tle_line1": "1 33870U 97051AP  25352.22499657  .00002083  00000+0  57937-3 0  9990",
        "tle_line2": "2 33870  86.3746  55.9098 0022051 160.4911 258.9692 14.45879643882162"
      },
      "geometry": {
        "type": "Point",
        "coordinates": [
          -119.09024822340113,
          -55.29067185869611
        ]
      }
    },
    {
      "type": "Feature",
      "properties": {
        "norad_id": 33881,
        "name": "IRIDIUM 33 DEB",
        "group": "iridium-33-debris",
        "lat": -21.740040969000354,
        "lon": 102.65894820932387,
        "alt_km": 752.7985463864943,
        "timestamp": "2025-12-18T19:29:52.927461+00:00",
        "meta_object_name": "IRIDIUM 33 DEB",
        "meta_object_id": "1997-051BA",
        "meta_epoch": "2025-12-18T06:43:06.772800",
        "meta_mean_motion": 14.56671928,
        "meta_eccentricity": 0.00614563,
        "meta_inclination": 86.3861,
        "meta_ra_of_asc_node": 104.3345,
        "meta_arg_of_pericenter": 156.8183,
        "meta_mean_anomaly": 271.0189,
        "meta_ephemeris_type": 0,
        "meta_classification_type": "U",
        "meta_norad_cat_id": 33881,
        "meta_element_set_no": 999,
        "meta_rev_at_epoch": 87581,
        "meta_bstar": 0.0016724136,
        "meta_mean_motion_dot": 7.682e-05,
        "meta_mean_motion_ddot": 0,
        "tle_line1": "1 33881U 97051BA  25352.27993950  .00007682  00000+0  16724-2 0  9990",
        "tle_line2": "2 33881  86.3861 104.3345 0061456 156.8183 271.0189 14.56671928875817"
      },
      "geometry": {
        "type": "Point",
        "coordinates": [
          102.65894820932387,
          -21.740040969000354
        ]
      }
    },
    {
      "type": "Feature",
      "properties": {
        "norad_id": 33884,
        "name": "IRIDIUM 33 DEB",
        "group": "iridium-33-debris",
        "lat": 20.322166024988547,
        "lon": 8.424920100832802,
        "alt_km": 636.0755149677152,
        "timestamp": "2025-12-18T19:29:52.927471+00:00",
        "meta_object_name": "IRIDIUM 33 DEB",
        "meta_object_id": "1997-051BD",
        "meta_epoch": "2025-12-18T01:49:15.051360",
        "meta_mean_motion": 14.77532652,
        "meta_eccentricity": 0.00092312,
        "meta_inclination": 86.3692,
        "meta_ra_of_asc_node": 7.4099,
        "meta_arg_of_pericenter": 303.1685,
        "meta_mean_anomaly": 121.968,
        "meta_ephemeris_type": 0,
        "meta_classification_type": "U",
        "meta_norad_cat_id": 33884,
        "meta_element_set_no": 999,
        "meta_rev_at_epoch": 88926,
        "meta_bstar": 0.0011886124,
        "meta_mean_motion_dot": 8.512e-05,
        "meta_mean_motion_ddot": 0,
        "tle_line1": "1 33884U 97051BD  25352.07586865  .00008512  00000+0  11886-2 0  9991",
        "tle_line2": "2 33884  86.3692   7.4099 0009231 303.1685 121.9680 14.77532652889264"
      },
      "geometry": {
        "type": "Point",
        "coordinates": [
          8.424920100832802,
          20.322166024988547
        ]
      }
    }
  ]
}